[{"OBJECT_NAME":"STARLINK-5895","OBJECT_ID":"2023-037BC","EPOCH":"2026-03-09T22:23:45.381696","MEAN_MOTION":15.07243555,"ECCENTRICITY":0.00049855,"INCLINATION":69.9972,"RA_OF_ASC_NODE":260.028,"ARG_OF_PERICENTER":264.4993,"MEAN_ANOMALY":95.5602,"EPHEMERIS_TYPE":0,"CLASSIFICATION_TYPE":"U","NORAD_CAT_ID":55964,"ELEMENT_SET_NO":999,"REV_AT_EPOCH":16460,"BSTAR":0.00072849946,"MEAN_MOTION_DOT":0.00010921,"MEAN_MOTION_DDOT":0},{"OBJECT_NAME":"STARLINK-35058","OBJECT_ID":"2025-191R","EPOCH":"2026-03-09T14:13:33.110112","MEAN_MOTION":15.05670963,"ECCENTRICITY":0.0001639,"INCLINATION":97.603,"RA_OF_ASC_NODE":301.4104,"ARG_OF_PERICENTER":72.1467,"MEAN_ANOMALY":287.9938,"EPHEMERIS_TYPE":0,"CLASSIFICATION_TYPE":"U","NORAD_CAT_ID":65394,"ELEMENT_SET_NO":999,"REV_AT_EPOCH":3025,"BSTAR":0.00052604,"MEAN_MOTION_DOT":7.542e-5,"MEAN_MOTION_DDOT":0}]
